CENTAURI-1              
1 43809U 18099BD  26064.69699399  .00008247  00000+0  44177-3 0  9995
2 43809  97.4363 118.6512 0013531 332.7339  27.3182 15.15184084396823
GLOBAL-2                
1 43812U 18099BG  26064.65197528  .00005115  00000+0  33609-3 0  9991
2 43812  97.3694 105.4453 0006974 139.8496 220.3249 15.08010155396305
SEAHAWK-1               
1 43820U 18099BQ  26064.64766860  .00011458  00000+0  52030-3 0  9996
2 43820  97.4100 118.7759 0007254 319.3595  40.7098 15.20920606396783
SAUDISAT 5A             
1 43831U 18102A   26064.79192991  .00008402  00000+0  32040-3 0  9991
2 43831  97.3194 128.3851 0011149 134.7230 225.4919 15.26871887399891
SAUDISAT 5B             
1 43833U 18102C   26064.76450230  .00007695  00000+0  29092-3 0  9999
2 43833  97.3292 131.2434 0011831 137.3069 222.9091 15.27183418400005
2018-102D               
1 43834U 18102D   26064.76133852  .00045289  00000+0  65639-3 0  9996
2 43834  97.3492 150.1671 0005462  91.7627 268.4253 15.55718533401118
ISAT                    
1 43879U 18111D   26064.78782060  .00063619  00000+0  11080-2 0  9995
2 43879  97.5907 353.3264 0003687 354.8838   5.2375 15.50537682395077
UWE-4                   
1 43880U 18111E   26064.77601891  .00037644  00000+0  95147-3 0  9994
2 43880  97.5856 348.9231 0008296 354.8932   5.2227 15.39668399394838
D-STAR ONE (SPARROW)    
1 43881U 18111F   26063.33282615  .00102608  00000+0  15755-2 0  9994
2 43881  97.6119 356.1312 0005469  45.4196 314.7503 15.53903851394990
JILIN-1 09              
1 43943U 19005B   26064.76046551  .00007369  00000+0  35073-3 0  9995
2 43943  97.4712 160.7126 0003748  96.7966 263.3695 15.19449253393432
JILIN-1 10              
1 43946U 19005E   26064.72337134  .00008935  00000+0  36737-3 0  9992
2 43946  97.4740 163.6661 0006887 282.9341  77.1127 15.24378236393546
EGYPTSAT-A (MISRSAT-A)  
1 44047U 19008A   26064.77385623  .00001041  00000+0  17263-3 0  9993
2 44047  98.0156 131.0463 0001121  80.8284 279.3051 14.72287657378029
EMISAT                  
1 44078U 19018A   26064.73577003  .00000354  00000+0  11727-3 0  9994
2 44078  98.4781 124.0468 0018893 165.9494 194.2226 14.43622999365137
JILIN-1 GAOFEN 3A       
1 44312U 19032C   26064.76321358  .00018301  00000+0  62450-3 0  9994
2 44312  44.9759 205.1206 0002460  83.5702 276.5461 15.30126037371984
WT 1A                   
1 44315U 19032F   26064.56301536  .00183711  00000+0  12308-2 0  9995
2 44315  44.9747 102.3305 0008019  51.5047 308.6571 15.73950720373202
WT 1B                   
1 44316U 19032G   26064.71195087  .00016484  00000+0  66037-3 0  9996
2 44316  44.9740 264.8256 0008514  24.0037 336.1240 15.24874498371276
PROX-1                  
1 44339U 19036A   26064.34144578  .00018101  00000+0  18979-2 0  9992
2 44339  23.9955  86.5377 0006096 266.9438  93.0363 14.87896971357978
