[{"OBJECT_NAME":"CENTAURI-1","OBJECT_ID":"2018-099BD","EPOCH":"2026-03-05T16:43:40.280736","MEAN_MOTION":15.15184084,"ECCENTRICITY":0.0013531,"INCLINATION":97.4363,"RA_OF_ASC_NODE":118.6512,"ARG_OF_PERICENTER":332.7339,"MEAN_ANOMALY":27.3182,"EPHEMERIS_TYPE":0,"CLASSIFICATION_TYPE":"U","NORAD_CAT_ID":43809,"ELEMENT_SET_NO":999,"REV_AT_EPOCH":39682,"BSTAR":0.00044177,"MEAN_MOTION_DOT":8.247e-5,"MEAN_MOTION_DDOT":0},{"OBJECT_NAME":"GLOBAL-2","OBJECT_ID":"2018-099BG","EPOCH":"2026-03-05T15:38:50.664192","MEAN_MOTION":15.08010155,"ECCENTRICITY":0.0006974,"INCLINATION":97.3694,"RA_OF_ASC_NODE":105.4453,"ARG_OF_PERICENTER":139.8496,"MEAN_ANOMALY":220.3249,"EPHEMERIS_TYPE":0,"CLASSIFICATION_TYPE":"U","NORAD_CAT_ID":43812,"ELEMENT_SET_NO":999,"REV_AT_EPOCH":39630,"BSTAR":0.00033609,"MEAN_MOTION_DOT":5.115e-5,"MEAN_MOTION_DDOT":0},{"OBJECT_NAME":"SEAHAWK-1","OBJECT_ID":"2018-099BQ","EPOCH":"2026-03-05T15:32:38.567040","MEAN_MOTION":15.20920606,"ECCENTRICITY":0.0007254,"INCLINATION":97.41,"RA_OF_ASC_NODE":118.7759,"ARG_OF_PERICENTER":319.3595,"MEAN_ANOMALY":40.7098,"EPHEMERIS_TYPE":0,"CLASSIFICATION_TYPE":"U","NORAD_CAT_ID":43820,"ELEMENT_SET_NO":999,"REV_AT_EPOCH":39678,"BSTAR":0.0005203,"MEAN_MOTION_DOT":0.00011458,"MEAN_MOTION_DDOT":0},{"OBJECT_NAME":"SAUDISAT 5A","OBJECT_ID":"2018-102A","EPOCH":"2026-03-05T19:00:22.744224","MEAN_MOTION":15.26871887,"ECCENTRICITY":0.0011149,"INCLINATION":97.3194,"RA_OF_ASC_NODE":128.3851,"ARG_OF_PERICENTER":134.723,"MEAN_ANOMALY":225.4919,"EPHEMERIS_TYPE":0,"CLASSIFICATION_TYPE":"U","NORAD_CAT_ID":43831,"ELEMENT_SET_NO":999,"REV_AT_EPOCH":39989,"BSTAR":0.0003204,"MEAN_MOTION_DOT":8.402e-5,"MEAN_MOTION_DDOT":0},{"OBJECT_NAME":"SAUDISAT 5B","OBJECT_ID":"2018-102C","EPOCH":"2026-03-05T18:20:52.998720","MEAN_MOTION":15.27183418,"ECCENTRICITY":0.0011831,"INCLINATION":97.3292,"RA_OF_ASC_NODE":131.2434,"ARG_OF_PERICENTER":137.3069,"MEAN_ANOMALY":222.9091,"EPHEMERIS_TYPE":0,"CLASSIFICATION_TYPE":"U","NORAD_CAT_ID":43833,"ELEMENT_SET_NO":999,"REV_AT_EPOCH":40000,"BSTAR":0.00029092,"MEAN_MOTION_DOT":7.695e-5,"MEAN_MOTION_DDOT":0},{"OBJECT_NAME":"2018-102D","OBJECT_ID":"2018-102D","EPOCH":"2026-03-05T18:16:19.648128","MEAN_MOTION":15.55718533,"ECCENTRICITY":0.0005462,"INCLINATION":97.3492,"RA_OF_ASC_NODE":150.1671,"ARG_OF_PERICENTER":91.7627,"MEAN_ANOMALY":268.4253,"EPHEMERIS_TYPE":0,"CLASSIFICATION_TYPE":"U","NORAD_CAT_ID":43834,"ELEMENT_SET_NO":999,"REV_AT_EPOCH":40111,"BSTAR":0.00065639,"MEAN_MOTION_DOT":0.00045289,"MEAN_MOTION_DDOT":0},{"OBJECT_NAME":"ISAT","OBJECT_ID":"2018-111D","EPOCH":"2026-03-05T18:54:27.699840","MEAN_MOTION":15.50537682,"ECCENTRICITY":0.0003687,"INCLINATION":97.5907,"RA_OF_ASC_NODE":353.3264,"ARG_OF_PERICENTER":354.8838,"MEAN_ANOMALY":5.2375,"EPHEMERIS_TYPE":0,"CLASSIFICATION_TYPE":"U","NORAD_CAT_ID":43879,"ELEMENT_SET_NO":999,"REV_AT_EPOCH":39507,"BSTAR":0.001108,"MEAN_MOTION_DOT":0.00063619,"MEAN_MOTION_DDOT":0},{"OBJECT_NAME":"UWE-4","OBJECT_ID":"2018-111E","EPOCH":"2026-03-05T18:37:28.033824","MEAN_MOTION":15.39668399,"ECCENTRICITY":0.0008296,"INCLINATION":97.5856,"RA_OF_ASC_NODE":348.9231,"ARG_OF_PERICENTER":354.8932,"MEAN_ANOMALY":5.2227,"EPHEMERIS_TYPE":0,"CLASSIFICATION_TYPE":"U","NORAD_CAT_ID":43880,"ELEMENT_SET_NO":999,"REV_AT_EPOCH":39483,"BSTAR":0.00095147,"MEAN_MOTION_DOT":0.00037644,"MEAN_MOTION_DDOT":0},{"OBJECT_NAME":"D-STAR ONE (SPARROW)","OBJECT_ID":"2018-111F","EPOCH":"2026-03-04T07:59:16.179360","MEAN_MOTION":15.53903851,"ECCENTRICITY":0.00054697,"INCLINATION":97.6119,"RA_OF_ASC_NODE":356.1312,"ARG_OF_PERICENTER":45.4196,"MEAN_ANOMALY":314.7503,"EPHEMERIS_TYPE":0,"CLASSIFICATION_TYPE":"U","NORAD_CAT_ID":43881,"ELEMENT_SET_NO":999,"REV_AT_EPOCH":39499,"BSTAR":0.0015754922,"MEAN_MOTION_DOT":0.00102608,"MEAN_MOTION_DDOT":0},{"OBJECT_NAME":"JILIN-1 09","OBJECT_ID":"2019-005B","EPOCH":"2026-03-05T18:15:04.220064","MEAN_MOTION":15.19449253,"ECCENTRICITY":0.0003748,"INCLINATION":97.4712,"RA_OF_ASC_NODE":160.7126,"ARG_OF_PERICENTER":96.7966,"MEAN_ANOMALY":263.3695,"EPHEMERIS_TYPE":0,"CLASSIFICATION_TYPE":"U","NORAD_CAT_ID":43943,"ELEMENT_SET_NO":999,"REV_AT_EPOCH":39343,"BSTAR":0.00035073,"MEAN_MOTION_DOT":7.369e-5,"MEAN_MOTION_DDOT":0},{"OBJECT_NAME":"JILIN-1 10","OBJECT_ID":"2019-005E","EPOCH":"2026-03-05T17:21:39.283776","MEAN_MOTION":15.24378236,"ECCENTRICITY":0.0006887,"INCLINATION":97.474,"RA_OF_ASC_NODE":163.6661,"ARG_OF_PERICENTER":282.9341,"MEAN_ANOMALY":77.1127,"EPHEMERIS_TYPE":0,"CLASSIFICATION_TYPE":"U","NORAD_CAT_ID":43946,"ELEMENT_SET_NO":999,"REV_AT_EPOCH":39354,"BSTAR":0.00036737,"MEAN_MOTION_DOT":8.935e-5,"MEAN_MOTION_DDOT":0},{"OBJECT_NAME":"EGYPTSAT-A (MISRSAT-A)","OBJECT_ID":"2019-008A","EPOCH":"2026-03-05T18:34:21.178272","MEAN_MOTION":14.72287657,"ECCENTRICITY":0.0001121,"INCLINATION":98.0156,"RA_OF_ASC_NODE":131.0463,"ARG_OF_PERICENTER":80.8284,"MEAN_ANOMALY":279.3051,"EPHEMERIS_TYPE":0,"CLASSIFICATION_TYPE":"U","NORAD_CAT_ID":44047,"ELEMENT_SET_NO":999,"REV_AT_EPOCH":37802,"BSTAR":0.00017263,"MEAN_MOTION_DOT":1.041e-5,"MEAN_MOTION_DDOT":0},{"OBJECT_NAME":"EMISAT","OBJECT_ID":"2019-018A","EPOCH":"2026-03-05T17:39:30.530592","MEAN_MOTION":14.43622999,"ECCENTRICITY":0.0018893,"INCLINATION":98.4781,"RA_OF_ASC_NODE":124.0468,"ARG_OF_PERICENTER":165.9494,"MEAN_ANOMALY":194.2226,"EPHEMERIS_TYPE":0,"CLASSIFICATION_TYPE":"U","NORAD_CAT_ID":44078,"ELEMENT_SET_NO":999,"REV_AT_EPOCH":36513,"BSTAR":0.00011727,"MEAN_MOTION_DOT":3.54e-6,"MEAN_MOTION_DDOT":0},{"OBJECT_NAME":"JILIN-1 GAOFEN 3A","OBJECT_ID":"2019-032C","EPOCH":"2026-03-05T18:19:01.653312","MEAN_MOTION":15.30126037,"ECCENTRICITY":0.000246,"INCLINATION":44.9759,"RA_OF_ASC_NODE":205.1206,"ARG_OF_PERICENTER":83.5702,"MEAN_ANOMALY":276.5461,"EPHEMERIS_TYPE":0,"CLASSIFICATION_TYPE":"U","NORAD_CAT_ID":44312,"ELEMENT_SET_NO":999,"REV_AT_EPOCH":37198,"BSTAR":0.0006245,"MEAN_MOTION_DOT":0.00018301,"MEAN_MOTION_DDOT":0},{"OBJECT_NAME":"WT 1A","OBJECT_ID":"2019-032F","EPOCH":"2026-03-05T13:30:44.527104","MEAN_MOTION":15.7395072,"ECCENTRICITY":0.0008019,"INCLINATION":44.9747,"RA_OF_ASC_NODE":102.3305,"ARG_OF_PERICENTER":51.5047,"MEAN_ANOMALY":308.6571,"EPHEMERIS_TYPE":0,"CLASSIFICATION_TYPE":"U","NORAD_CAT_ID":44315,"ELEMENT_SET_NO":999,"REV_AT_EPOCH":37320,"BSTAR":0.0012308,"MEAN_MOTION_DOT":0.00183711,"MEAN_MOTION_DDOT":0},{"OBJECT_NAME":"WT 1B","OBJECT_ID":"2019-032G","EPOCH":"2026-03-05T17:05:12.555168","MEAN_MOTION":15.24874498,"ECCENTRICITY":0.0008514,"INCLINATION":44.974,"RA_OF_ASC_NODE":264.8256,"ARG_OF_PERICENTER":24.0037,"MEAN_ANOMALY":336.124,"EPHEMERIS_TYPE":0,"CLASSIFICATION_TYPE":"U","NORAD_CAT_ID":44316,"ELEMENT_SET_NO":999,"REV_AT_EPOCH":37127,"BSTAR":0.00066037,"MEAN_MOTION_DOT":0.00016484,"MEAN_MOTION_DDOT":0},{"OBJECT_NAME":"PROX-1","OBJECT_ID":"2019-036A","EPOCH":"2026-03-05T08:11:40.915392","MEAN_MOTION":14.87896971,"ECCENTRICITY":0.0006096,"INCLINATION":23.9955,"RA_OF_ASC_NODE":86.5377,"ARG_OF_PERICENTER":266.9438,"MEAN_ANOMALY":93.0363,"EPHEMERIS_TYPE":0,"CLASSIFICATION_TYPE":"U","NORAD_CAT_ID":44339,"ELEMENT_SET_NO":999,"REV_AT_EPOCH":35797,"BSTAR":0.0018979,"MEAN_MOTION_DOT":0.00018101,"MEAN_MOTION_DDOT":0}]
